{
  "type": "FeatureCollection",
  "features": [
    {
      "type": "Feature",
      "properties": {
        "norad_id": 32174,
        "name": "FENGYUN 1C DEB",
        "group": "fengyun-1c-debris",
        "lat": -15.539642153618534,
        "lon": 58.720623990115165,
        "alt_km": 891.0607653775041,
        "timestamp": "2025-12-20T09:36:01.930982+00:00",
        "meta_object_name": "FENGYUN 1C DEB",
        "meta_object_id": "1999-025CTU",
        "meta_epoch": "2025-12-14T21:34:34.410432",
        "meta_mean_motion": 14.17923145,
        "meta_eccentricity": 0.01505704,
        "meta_inclination": 98.6008,
        "meta_ra_of_asc_node": 50.9784,
        "meta_arg_of_pericenter": 239.665,
        "meta_mean_anomaly": 118.9562,
        "meta_ephemeris_type": 0,
        "meta_classification_type": "U",
        "meta_norad_cat_id": 32174,
        "meta_element_set_no": 999,
        "meta_rev_at_epoch": 64136,
        "meta_bstar": 0.00031806491,
        "meta_mean_motion_dot": 6.84e-06,
        "meta_mean_motion_ddot": 0,
        "tle_line1": "1 32174U 99025CTU 25348.89900938  .00000684  00000+0  31806-3 0  9998",
        "tle_line2": "2 32174  98.6008  50.9784 0150570 239.6650 118.9562 14.17923145641361"
      },
      "geometry": {
        "type": "Point",
        "coordinates": [
          58.720623990115165,
          -15.539642153618534
        ]
      }
    },
    {
      "type": "Feature",
      "properties": {
        "norad_id": 32175,
        "name": "FENGYUN 1C DEB",
        "group": "fengyun-1c-debris",
        "lat": -42.78297856722516,
        "lon": -9.10463265537311,
        "alt_km": 810.8748522254728,
        "timestamp": "2025-12-20T09:36:01.930992+00:00",
        "meta_object_name": "FENGYUN 1C DEB",
        "meta_object_id": "1999-025CTV",
        "meta_epoch": "2025-12-18T06:09:26.308800",
        "meta_mean_motion": 13.94848642,
        "meta_eccentricity": 0.01519453,
        "meta_inclination": 98.8229,
        "meta_ra_of_asc_node": 340.581,
        "meta_arg_of_pericenter": 308.0289,
        "meta_mean_anomaly": 50.7239,
        "meta_ephemeris_type": 0,
        "meta_classification_type": "U",
        "meta_norad_cat_id": 32175,
        "meta_element_set_no": 999,
        "meta_rev_at_epoch": 59917,
        "meta_bstar": 0.0025010704,
        "meta_mean_motion_dot": 3.654e-05,
        "meta_mean_motion_ddot": 0,
        "tle_line1": "1 32175U 99025CTV 25352.25655450  .00003654  00000+0  25011-2 0  9990",
        "tle_line2": "2 32175  98.8229 340.5810 0151945 308.0289  50.7239 13.94848642599170"
      },
      "geometry": {
        "type": "Point",
        "coordinates": [
          -9.10463265537311,
          -42.78297856722516
        ]
      }
    },
    {
      "type": "Feature",
      "properties": {
        "norad_id": 32177,
        "name": "FENGYUN 1C DEB",
        "group": "fengyun-1c-debris",
        "lat": -17.687730479000017,
        "lon": 7.254595531047987,
        "alt_km": 681.9347906642452,
        "timestamp": "2025-12-20T09:36:01.931003+00:00",
        "meta_object_name": "FENGYUN 1C DEB",
        "meta_object_id": "1999-025CTX",
        "meta_epoch": "2025-12-19T07:17:54.949344",
        "meta_mean_motion": 14.56293661,
        "meta_eccentricity": 0.0051637,
        "meta_inclination": 99.0437,
        "meta_ra_of_asc_node": 3.1558,
        "meta_arg_of_pericenter": 25.4129,
        "meta_mean_anomaly": 334.9588,
        "meta_ephemeris_type": 0,
        "meta_classification_type": "U",
        "meta_norad_cat_id": 32177,
        "meta_element_set_no": 999,
        "meta_rev_at_epoch": 71134,
        "meta_bstar": 0.00096839,
        "meta_mean_motion_dot": 4.312e-05,
        "meta_mean_motion_ddot": 0,
        "tle_line1": "1 32177U 99025CTX 25353.30410821  .00004312  00000+0  96839-3 0  9999",
        "tle_line2": "2 32177  99.0437   3.1558 0051637  25.4129 334.9588 14.56293661711340"
      },
      "geometry": {
        "type": "Point",
        "coordinates": [
          7.254595531047987,
          -17.687730479000017
        ]
      }
    },
    {
      "type": "Feature",
      "properties": {
        "norad_id": 32178,
        "name": "FENGYUN 1C DEB",
        "group": "fengyun-1c-debris",
        "lat": 1.111811432399416,
        "lon": -3.078912908178773,
        "alt_km": 782.290319268368,
        "timestamp": "2025-12-20T09:36:01.931013+00:00",
        "meta_object_name": "FENGYUN 1C DEB",
        "meta_object_id": "1999-025CTY",
        "meta_epoch": "2025-12-19T06:35:46.322016",
        "meta_mean_motion": 14.2302281,
        "meta_eccentricity": 0.0094455,
        "meta_inclination": 100.3031,
        "meta_ra_of_asc_node": 355.8088,
        "meta_arg_of_pericenter": 305.4273,
        "meta_mean_anomaly": 53.8108,
        "meta_ephemeris_type": 0,
        "meta_classification_type": "U",
        "meta_norad_cat_id": 32178,
        "meta_element_set_no": 999,
        "meta_rev_at_epoch": 64096,
        "meta_bstar": 0.00088752,
        "meta_mean_motion_dot": 2.036e-05,
        "meta_mean_motion_ddot": 0,
        "tle_line1": "1 32178U 99025CTY 25353.27484169  .00002036  00000+0  88752-3 0  9998",
        "tle_line2": "2 32178 100.3031 355.8088 0094455 305.4273  53.8108 14.23022810640962"
      },
      "geometry": {
        "type": "Point",
        "coordinates": [
          -3.078912908178773,
          1.111811432399416
        ]
      }
    },
    {
      "type": "Feature",
      "properties": {
        "norad_id": 32179,
        "name": "FENGYUN 1C DEB",
        "group": "fengyun-1c-debris",
        "lat": -23.774368198714736,
        "lon": -140.88407142150152,
        "alt_km": 799.697596392808,
        "timestamp": "2025-12-20T09:36:01.931023+00:00",
        "meta_object_name": "FENGYUN 1C DEB",
        "meta_object_id": "1999-025CTZ",
        "meta_epoch": "2025-12-18T14:36:04.499424",
        "meta_mean_motion": 14.03685466,
        "meta_eccentricity": 0.01456631,
        "meta_inclination": 98.9086,
        "meta_ra_of_asc_node": 41.3221,
        "meta_arg_of_pericenter": 173.6117,
        "meta_mean_anomaly": 340.7705,
        "meta_ephemeris_type": 0,
        "meta_classification_type": "U",
        "meta_norad_cat_id": 32179,
        "meta_element_set_no": 999,
        "meta_rev_at_epoch": 65810,
        "meta_bstar": 0.00034833521,
        "meta_mean_motion_dot": 5.59e-06,
        "meta_mean_motion_ddot": 0,
        "tle_line1": "1 32179U 99025CTZ 25352.60838541  .00000559  00000+0  34834-3 0  9992",
        "tle_line2": "2 32179  98.9086  41.3221 0145663 173.6117 340.7705 14.03685466658107"
      },
      "geometry": {
        "type": "Point",
        "coordinates": [
          -140.88407142150152,
          -23.774368198714736
        ]
      }
    },
    {
      "type": "Feature",
      "properties": {
        "norad_id": 32180,
        "name": "FENGYUN 1C DEB",
        "group": "fengyun-1c-debris",
        "lat": -74.9215717314912,
        "lon": 175.80940183313518,
        "alt_km": 924.2178069456704,
        "timestamp": "2025-12-20T09:36:01.931034+00:00",
        "meta_object_name": "FENGYUN 1C DEB",
        "meta_object_id": "1999-025CUA",
        "meta_epoch": "2025-12-18T09:32:31.458048",
        "meta_mean_motion": 13.82329231,
        "meta_eccentricity": 0.01365397,
        "meta_inclination": 99.5851,
        "meta_ra_of_asc_node": 32.6161,
        "meta_arg_of_pericenter": 195.5515,
        "meta_mean_anomaly": 181.6656,
        "meta_ephemeris_type": 0,
        "meta_classification_type": "U",
        "meta_norad_cat_id": 32180,
        "meta_element_set_no": 999,
        "meta_rev_at_epoch": 94346,
        "meta_bstar": 0.00010110798,
        "meta_mean_motion_dot": 7.1e-07,
        "meta_mean_motion_ddot": 0,
        "tle_line1": "1 32180U 99025CUA 25352.39758632  .00000071  00000+0  10111-3 0  9993",
        "tle_line2": "2 32180  99.5851  32.6161 0136539 195.5515 181.6656 13.82329231943463"
      },
      "geometry": {
        "type": "Point",
        "coordinates": [
          175.80940183313518,
          -74.9215717314912
        ]
      }
    },
    {
      "type": "Feature",
      "properties": {
        "norad_id": 32181,
        "name": "FENGYUN 1C DEB",
        "group": "fengyun-1c-debris",
        "lat": 53.70278407914535,
        "lon": 86.07188822503296,
        "alt_km": 649.1257633869564,
        "timestamp": "2025-12-20T09:36:01.931044+00:00",
        "meta_object_name": "FENGYUN 1C DEB",
        "meta_object_id": "1999-025CUB",
        "meta_epoch": "2025-12-18T13:07:23.257344",
        "meta_mean_motion": 14.56075641,
        "meta_eccentricity": 0.00735151,
        "meta_inclination": 99.4718,
        "meta_ra_of_asc_node": 97.1082,
        "meta_arg_of_pericenter": 68.2232,
        "meta_mean_anomaly": 357.8706,
        "meta_ephemeris_type": 0,
        "meta_classification_type": "U",
        "meta_norad_cat_id": 32181,
        "meta_element_set_no": 999,
        "meta_rev_at_epoch": 96805,
        "meta_bstar": 0.00066927214,
        "meta_mean_motion_dot": 2.999e-05,
        "meta_mean_motion_ddot": 0,
        "tle_line1": "1 32181U 99025CUB 25352.54679696  .00002999  00000+0  66927-3 0  9990",
        "tle_line2": "2 32181  99.4718  97.1082 0073515  68.2232 357.8706 14.56075641968059"
      },
      "geometry": {
        "type": "Point",
        "coordinates": [
          86.07188822503296,
          53.70278407914535
        ]
      }
    }
  ]
}